Title,Website,PhoneNumber,Country,PostalCode,City,"Building,Street,etc."
Metal Machine Tattoo Studio,https://www.mmtattoo.com/,+27 21 423 0688,South Africa,8001,Cape Town,49 Shortmarket St - Central
Hoodoo Tattoos,https://www.facebook.com/HoodooTattoos/,+27 21 486 9003,South Africa,7441,Cape Town,186 Lower Main Rd - Observatory
Cape Town Tattoos. Mr Lucky'S,http://www.capetowntattoo.com/,+27 84 588 6005,South Africa,7915,Cape Town,Fairweather house - 31 Francis Street - Zonnebloem The Basement - Zonnebloem
Cape Electric Tattoo,capeelectrictattoo.com,+27 21 423 7646,South Africa,8001,Cape Town,11 Buitensingel St - Gardens
Tomb Tattoo,tombtattoo.co.za,+27 21 461 5218,South Africa,8001,Cape Town,Unit 16 gardens business village Wandel street - Gardens
Betrue Ink Tattoo'S And Body Piercing Studio,,+27 83 364 6483,South Africa,8001,Cape Town,african mall - 98 Long St - Cape Town City Centre
More Than Hype - Tattoo Art Collective,,+27 72 606 1499,South Africa,8001,Cape Town,Model Villa Oranjezicht - 4 Hiddingh Ave - Gardens
Sleight Of Hand Tattoos,sleightofhandtattoos.wixsite.com,,South Africa,7915,Cape Town,48 Albert Rd - Woodstock
Keepsake Tattoo Cape Town,,,South Africa,7806,Cape Town,Stoked Building - 175 Main Rd - Muizenberg
Queen Of Steel,queenofsteel.co.za,+27 21 712 5088,South Africa,7945,Cape Town,Shop G64 Blue Route Mall - Tokai
The Body Architects,thebodyarchitects.com,+27 82 226 4065,South Africa,7708,Cape Town,166 2nd Ave - Kenilworth
Wildfire Tattoo And Body Piercing Studio,wildfireza.com,+27 21 422 0524,South Africa,8000,Cape Town,206 Long St - Cape Town City Centre
Kings And Queens Ink Lounge,,+27 79 399 0926,South Africa,7580,Cape Town,5 Kiepersol St - Kuils River
Good Things Tattoo,goodthingstattoo.com,+27 60 603 3586,South Africa,7925,Cape Town,304 Albert Rd - Woodstock
Kak Lucky Tattoos,kakluckytattoos.com,+27 21 422 2963,South Africa,8001,Cape Town,43 Kloof St - Gardens
Dark Horse Society,darkhorse.co.za,,South Africa,7708,Cape Town,91 1st Ave - Claremont
Arcane Tattoo & Piercing,https://www.facebook.com/Arcanetattoo,+27 21 447 1967,South Africa,7935,Cape Town,98 Lower Main Rd - Observatory
Skullbox & Tattoo Company,skullboxtattoocompany.com,+27 72 403 3071,South Africa,7441,Cape Town,Shop 2 - The Emporium - Sandown Rd - Parklands
Descriptive Art Collective,,,South Africa,7446,Cape Town,15 Oxbow Cres - Century City
Marius Bosman'S Tattoo Studio,https://m.facebook.com/login.php?next=https%3A%2F%2Fm.facebook.com%2Fmariusbosmantattoos&refsrc=deprecated&_rdr,+27 78 607 5775,South Africa,7139,Cape Town,580 Frans Conradie Dr - Brackenfell
Devon Slaves Tattoos,,+27 83 229 0376,South Africa,7493,Cape Town,30 Tennant Cres - N.T.
Primal Culture Tattoo Studio,primalculture.co.za,+27 21 707 1299,South Africa,7800,Cape Town,unit 3 - Clarewood - 1 Annandale Rd - Diep River
Mantra Tattoos,https://m.facebook.com/login.php?next=https%3A%2F%2Fm.facebook.com%2Fsamantratattoos%2F&refsrc=deprecated&_rdr,+27 82 528 0566,South Africa,8000,Cape Town,142 Buitengracht St - Cape Town City Centre
Skintrade Tattoos,https://www.skintrade.co.za/,+27 76 025 2410,South Africa,7441,Cape Town,Shop 5 - Northpoint Centre - Porterfield Rd - Table View
The Ink Lane Tattoos,https://www.facebook.com/inktattoosza/,+27 81 584 1336,South Africa,7441,Cape Town,Burgundy Estate
Disciples Ink Durbanville Tattoo Studio,disciplesink.co.za,+27 61 289 9798,South Africa,7530,Cape Town,1st Floor Shop 1 - Tygervally - High Street Center Durban Road - 8 Durbanville Ave
Monarch Tattoo Co.,https://www.monarchtattoo.co.za/,+27 76 839 6849,South Africa,7925,Cape Town,The Old Castle Brewery 4th Floor - Unit 410 - Woodstock
Hellhound Tattoo Studio,http://www.hellhoundtattoo.co.za/,+27 81 506 6495,South Africa,7441,Cape Town,7 Blaauwberg Rd - Table View
Ten Two Tattoo,https://m.facebook.com/login.php?next=https%3A%2F%2Fm.facebook.com%2Fprofile.php%3Fid%3D1096652487018983&refsrc=deprecated&_rdr,+27 73 069 2156,South Africa,7700,Cape Town,24A - 26 Main Rd - Rondebosch
Wildfire Tattoo & Piercing - Canal Walk,wildfireza.com,+27 21 552 8929,South Africa,7441,Cape Town,Shop 478a - Entrance 8 - Canal Walk - Century Blvd - Century City
Disciples Ink Strand Tattoo Studio,disciplesink.co.za,+27 71 099 7458,South Africa,7140,Cape Town,Beach Rd - Strand
Kanasashi Tattoos,,+27 72 213 5072,South Africa,7801,Cape Town,86 Victoria Rd - Plumstead
Cape Tattoo Co,facebook.com,+27 82 552 9423,South Africa,7925,Cape Town,Inside Armchair Theatre - 135 Lower Main Rd - Observatory
Moving Art Tattoos And Piercings,movingarttattoos.co.za,+27 72 869 8237,South Africa,7460,Cape Town,18 Monte Vista Blvd - Monte Vista
True Colours Tattoo Studio,,+27 82 503 7714,South Africa,7708,Cape Town,G17 - Stadium on Main - 99 Main Rd - Claremont
Serenity Tattoos & Piercings Cpt,,+27 64 317 1588,South Africa,7530,Cape Town,11 Vlei St - Parow Valley
Sally Mustang Tattoos Cape Town,sallymustangs.co,+27 21 426 9020,South Africa,7806,Cape Town,29 Park Ave - Hout Bay
The Tattooer,https://www.thetattooer.net/,+27 82 456 2858,South Africa,7530,Cape Town,13th Ave - Boston
Illusion Tattoos Supplies (Tattoos & Piercings) (Pty) Ltd.,https://www.illusiontattoos.co.za/,+27 62 682 8327,South Africa,7441,Cape Town,52 Cross Rd - Table View
Bethaaink_Tattoo & Piercing,kanyex.co.za,+27 67 884 2957,South Africa,8000,Cape Town,24 Plein St - Cape Town City Centre
Black Jack Tattoos,https://heytattoo.co.za/0381465/Blackjack-Tattoos_Parow,+27 66 434 7976,South Africa,8000,Cape Town,83 Voortrekker Rd - Glenlily
Studio 52,,,South Africa,7441,Cape Town,Parklands Junction - Parklands Main Rd & Wood Dr - Parklands
Team Black Sheep Tattoos,https://www.facebook.com/teamblacksheeptattoocapetown/,+27 79 367 0116,South Africa,7441,Cape Town,12 Marine Cir - Table View
Palm Black Tattoo,https://www.instagram.com/palmblacktattoo/,+27 21 461 0622,South Africa,8001,Cape Town,16B Kloof Nek Rd - Gardens
Blake Ink Tattoo & Piercing Studio,,+27 76 903 2356,South Africa,7925,Cape Town,Gateway To Obz - 1 Cranko Rd - Observatory
Skullair Tattoo Supplies Cape Town,skullair.co.za,+27 81 040 5194,South Africa,7441,Cape Town,127 Blaauwberg Rd - Table View
Black Cannon Tattoos,bctattoo.co.za,+27 72 732 0482,South Africa,7945,Cape Town,120 Main Rd - Muizenberg
Afterlife Ink Tattoos,https://www.facebook.com/afterlifetattoos83/,+27 78 743 7712,South Africa,7460,Cape Town,140 Voortrekker Rd - Goodwood
Mad Ink Tattoos,madink.co.za,+27 71 302 2660,South Africa,7500,Cape Town,54 McIntyre St - Glenlily
Sanctum Design Tattoo Theatre,,+27 71 489 0520,South Africa,7975,Cape Town,Capricorn Beach Estate - 39 Santiago Bay - Sanderling Rd - Muizenberg
Killswitch-Ink,,+27 81 499 1138,South Africa,8060,Cape Town,3 Clarens Rd - Sea Point
All Hands Tattoo Studio,,+27 72 136 2347,South Africa,7945,Cape Town,77 Main Rd - Muizenberg
Inkrepublik Tattoo Studio,,+27 65 676 7289,South Africa,7806,Cape Town,Shop 13 Village Gate - Main Rd - Hout Bay
Tools Of Trade Tattoo Studios,,+27 65 299 5498,South Africa,7925,Cape Town,10a Brickfield Park - 18 Brickfield Rd - Woodstock
Ink Cartel Cape Town,https://barbercartel.co.za/,+27 79 501 9219,South Africa,8001,Cape Town,87 Victoria Rd - Camps Bay
Black Rose Tattoos,,+27 73 023 0746,South Africa,7915,Cape Town,363 Albert Rd - Woodstock
Dreaming Ink,https://www.instagram.com/dreaminginktattoos/,+27 84 232 0537,South Africa,7950,Cape Town,34 Palmer Rd - Muizenberg
New Dawn Tattoos,https://www.facebook.com/newdawntattoos,+27 71 482 1412,South Africa,7530,Cape Town,136 Edward Rd - Bo Oakdale
Wildfire Tattoo And Body Piercing Studio,wildfireza.com,+27 79 244 8699,South Africa,7708,Cape Town,Unit 4 - Access park - 81 Chichester Rd - Kenilworth
Master G Inks Cape Town,https://master-g-inks-cape-town.business.site/,+27 79 932 8358,South Africa,8001,Cape Town,261 Main Rd - Sea Point
The Witch House,thewitchhouse.co.za,+27 78 083 5808,South Africa,7708,Cape Town,34 1st Ave - Claremont
Marshall Law Tattoo Studio,,+27 82 223 2269,South Africa,7798,Cape Town,c/o Jakes Gerwel Drive &Morgenster Road - Mitchells Plain
Secret Garden Tattoo,,+27 82 944 0491,South Africa,7800,Cape Town,161 Main Rd - Plumstead
Black & White Tattoo Studios - Cape Town,blackandwhitetattoostudios.co.za,+27 68 143 2262,South Africa,7441,Cape Town,Shop 407a - Canal Walk Mall - Century Blvd - Century City
Whittleink Tattoo Studio,https://www.facebook.com/WhittleInkFamily/?ref=pages_you_manage,+27 83 680 4047,South Africa,7785,Cape Town,186 Metropolitan St - Beacon Valley
Samurai Empire Tattoo Studio,,+27 79 412 8522,South Africa,7785,Cape Town,Tygervalley - Shop 2 - Cascades 1 Tyger Waterfront
Ink & Cbd Studio 85,,+27 65 993 6151,South Africa,7441,Cape Town,Parklands Park West Centre Unit 12A2
Skin Vandal Tattoos,https://skin-vandal-tattoos.business.site/,+27 73 790 5732,South Africa,7580,Cape Town,31 Coway St - Diepwater
Needles & Pins Tattoo,https://needlespins-tattoo.business.site/,+27 61 419 3694,South Africa,7974,Cape Town,Shop 2 Triangle Square - Cnr de Waal & - 1st Cres - Fish Hoek
RInk Tattoos Sa,rink-tattoos-sa.business.site,+27 71 359 2095,South Africa,7500,Cape Town,18 Marlborough St - Marlborough
Gray'S Ink,https://grays-ink.business.site/,+27 62 341 9226,South Africa,7785,Cape Town,4 Stag Cres - Mitchells Plain
Pennyred Tattoo Supplies (Pty)Ltd. & Tattoo Studio,pennyred.co.za,+27 83 265 8344,South Africa,7441,Cape Town,Sunningdale
Ink 'N Steel - Tattoo & Piercings,https://ink-n-steel-tattoo-piercings.business.site/?utm_source=gmb&utm_medium=referral,+27 71 338 3785,South Africa,7560,Vredekloof Heights,Shop 2B De Bron Centre - Gardener St
The Catalyst Studios,,,South Africa,7925,Cape Town,Unit 17 - Beachwood Industrial Center - 11 Beach Rd - Woodstock
True Black Tattoo Training,,+27 84 569 1406,South Africa,7441,Cape Town,2 Long St - Cape Town City Centre
Murder Ink Tattoo & Piercing Lounge,,+27 21 811 1779,South Africa,7580,Cape Town,116 Lang St - Kuils River
Hood Ink,,+27 78 783 5615,South Africa,7935,Cape Town,26B Lower Main Rd - Observatory
Tainted Skin Tattoo Studio,,+27 79 698 1962,South Africa,7460,Cape Town,Murray St - Vasco Estate
'S' Tattoo Supplies And Skincare Products,https://s-tattoo-supplies.business.site/?utm_source=gmb&utm_medium=referral,+27 68 055 5555,South Africa,7500,Cape Town,269B Voortrekker Rd - Parow
Aya Soul Tattoos,pingils.co.za,+27 82 564 9992,South Africa,7925,Cape Town,222 Sir Lowry Rd - Zonnebloem
Brightstar Tattoo And Piercing Studio,,+27 74 782 7640,South Africa,7785,Cape Town,15 Oxford Cres - london village
Rotten Apple Tattoo Studio,,+27 78 936 7861,South Africa,7945,Cape Town,Shop 276 Retreat Rd - Retreat
All Or Nothing Tattoo Studio,,+27 82 556 0898,South Africa,7925,Cape Town,145 Sir Lowry Rd - Zonnebloem - Cape Town - Western Cape
Firehawk Ink,https://firehawkink.wixsite.com/tattoo,+27 72 693 6334,South Africa,7441,Cape Town,15 Lingfield closer Close - Milnerton Ridge
Lady Luck Tattoos,,,South Africa,8001,Cape Town,2nd floor - 53 Wale St - CBD
Vg Tattooing,,+27 78 599 8900,South Africa,7490,Cape Town,64 Clare St - Connaught
Ironclad Tattoos,https://aidincityonfire.wixsite.com/ironcladtattoos,+27 84 955 0943,South Africa,7441,Cape Town,3 Viola Rd - Table View
Gypsy Cove Tattoo,,+27 74 318 0080,South Africa,8001,Cape Town,2nd Floor - One11 Gallery - 111 Loop St - Cape Town City Centre
The Tattoo Shop Bellville,,+27 72 351 5177,South Africa,7530,Cape Town,217 Bellevue St - Kempenville
444Tattoostudio,https://www.instagram.com/444tattoostudio/,+27 69 632 3689,South Africa,7441,Cape Town,Sable Square Shopping Centre - Century City
Tattoo At Studio 52,,,South Africa,7441,Cape Town,Milnerton Rural
Skin Tattoo Studio,https://skintattoo.weebly.com/,+27 66 238 5571,South Africa,7500,Cape Town,106 Scott Rd - Parow
West Coast Inked Tattoo,,+27 73 733 5724,South Africa,7441,Cape Town,35 coot cresent Flamingo Vlei - Milnerton Rural
Long Street Tattoo Co.,longstreettattoo.co.za,+27 81 897 2531,South Africa,8001,Cape Town,305 Long St - CBD
The Salty Dog Tattoo Parlour,,,South Africa,7925,Cape Town,374 - 14 Salt Circle Arcade - Albert Rd - Salt River
The Tattoo Den,https://thetattooden.business.site/?utm_source=gmb&utm_medium=referral,+27 73 373 4681,South Africa,7785,Cape Town,10 Wellington St - Portland
Luna Tattoo,,,South Africa,7441,Cape Town,107 Blaauwberg Rd - Table View
Cailin Tattoo,,,South Africa,8001,Cape Town,111 Loop St - Cape Town City Centre
Aztec Tatoo & Piercing,,,South Africa,7530,Cape Town,Edward Rd - Bo Oakdale
Cpt Ink Addicts,https://cpt-ink-addicts.business.site/?utm_source=gmb&utm_medium=referral,+27 61 585 9347,South Africa,7785,Cape Town,4 Ayrshire Cl - Westridge
Die Honest,diehonest.com,,South Africa,7925,Cape Town,Sins of Style - 37 Barrack St - Zonnebloem
Regnif Temporary Tattoos,,,South Africa,8001,Cape Town,45 Mill St - Gardens
Temp Tattoos Cc,,+27 21 433 0396,South Africa,8000,Cape Town,Helen Suzman Blvd
Disciples Ink,,+27 83 783 0183,South Africa,7530,Bellville,Floor 1 High Street Ctr Tygervalley
Killswitch Ink Cape Town,,+27 81 499 1138,South Africa,7493,Cape Town,86 Charles Grodes Cres - Ravensmead
Wild Side Tattoos,wildsidetattooz.co.za,+27 78 761 9932,South Africa,7405,Cape Town,80 Da Gama Street - 1 Barnhyme Court - Brooklyn
Here Now Tattoo,https://www.instagram.com/herenowtattoo/,,South Africa,8001,Cape Town,2nd floor - 53 Wale St - CBD
Bad Monkey Tattoo Studio,,,South Africa,7441,Cape Town,258 Blaauwberg Rd - Table View
Tentwo Tattoo Studios,,,South Africa,7700,Cape Town,Devonshire Hill Rd - Rondebosch
Wredekloof Hair And Tattoo Studio,https://www.facebook.com/hairbyjessiedk/,+27 76 870 0327,South Africa,7560,Cape Town,4 Marigold Way - Vredekloof
The Gallery Tattoo Studio,,+27 79 474 8403,South Africa,7925,Cape Town,363 Albert Rd - Woodstock
Hood Ink Tattoos,https://www.facebook.com/hoodinktattoos,+27 61 854 9087,South Africa,7441,Cape Town,Postdam Road & - Winning Way - Dunoon
Midnight Sun Tattoo,,+27 76 912 1381,South Africa,7441,Cape Town,unit 5 - Eaton Centre - 19 Blaauwberg Rd - Table View
Siegwerk Ink,,+27 21 552 6125,South Africa,7441,Cape Town,17 3rd St - Montague Gdns Ind
The Tattoo Valley,https://thetattoovalley.co.za/,+27 79 217 6199,South Africa,7975,Cape Town,Appointment only - 37 Longboat St - Sunnydale
The Ink Lounge,https://www.facebook.com/The-Ink-Lounge-111249148902892/,+27 84 650 3749,South Africa,7500,Cape Town,144 Voortrekker Rd - Glenlily
Freestylers Tattoo Lounge,,,South Africa,7441,Cape Town,12 Beach Blvd - Table View
Tattooist Guy,https://www.tattooistguy.com/,+27 74 185 8425,South Africa,7925,Cape Town,48 Albert Rd - Woodstock
Hooligansink,,+27 84 818 5207,South Africa,7530,Cape Town,25 Rhebok Cl - Loevenstein
Tattoo Zone Studio,,+27 81 518 2969,South Africa,7500,Cape Town,83 Voortrekker Rd - Parow
Ghostbong Tattoos,,+27 81 762 9702,South Africa,7100,Cape Town,128 Fairview Rd - penhill estate
Tattoos By Gabrin Minnaar,,,South Africa,7580,Cape Town,43 Van Riebeeck Rd - Kuils River
Salvatrix Ink Tattoo Studio,,+27 76 798 5377,South Africa,7735,Cape Town,Grove Ave
Iron Warrior Tattoo Supplies,,,South Africa,7800,Cape Town,5 Cornwall Pl - Wynberg
Lafriniere Collection,,+27 83 566 7431,South Africa,8001,Cape Town,138 Bree St - Cape Town City Centre
Gugulethu Tattoo Store,chrome-error://chromewebdata/,+27 63 785 3572,South Africa,7750,Cape Town,Ny13 No21 - Guguletu
Hoodoo Tattoos,,+27 21 554 4086,South Africa,7441,Milnerton,Eden On The Bay Mall - Sir David Baird Dve - Bloubergstrand
Satori Ink Cpt,,+27 61 590 6231,South Africa,7945,Cape Town,Allenby Dr - Retreat
The Tattoo Lounge,,+27 81 869 5600,South Africa,7945,Cape Town,460 Main Rd - Retreat
C.T.E Tattoos Supplies,https://www.illusiontattoos.co.za/,+27 81 374 9130,South Africa,7441,Cape Town,152 Gie Rd - Table view
Mean Jean Tattoos,,+27 71 179 0057,South Africa,7405,Cape Town,31 Justin St - Brooklyn
Shapeshiftstudio,,+27 79 710 4312,South Africa,0070,Cape Town,1 Glynville terrace - no.5A media hive building - Gardens
Oldfield Tattoos,,+27 21 461 5218,South Africa,8001,Cape Town,5 Wandel St - Gardens
Smackatatt,,+27 76 135 3371,South Africa,7530,Cape Town,2 Kingsmead Ave - Kingston
Disciples Ink Stellenbosch Tattoo Studio,disciplesink.co.za,+27 71 057 6537,South Africa,7600,Stellenbosch,3 Crozier Rd - Stellenbosch Central
Maverick Ink Sa,,,South Africa,7950,Cape Town,120 Main Rd - Muizenberg
Laser Tattoo Removal Cape Town,lasertattooremovalcapetown.co.za,+27 79 168 7209,South Africa,7441,Cape Town,102 Oakland Hill Rd - Parklands
Ctrl+Alt+Del Tattoo Removal & Lightening,,+27 83 411 1821,South Africa,7441,Cape Town,17 Redcliffe Cl - Parklands
@ That Tattoo Studio,chrome-error://chromewebdata/,+27 65 350 7565,South Africa,8005,Cape Town,9 Campberwell rd - 702 The Ritz - Sea Point
Empire Tattoo Studio,https://hadleybrauns5.wixsite.com/my-site,+27 84 445 1999,South Africa,7130,Cape Town,Shop 4 - 144 Main Rd - Somerset West
Carvel,carvel.co.za,+27 82 044 2038,South Africa,7979,Cape Town,65 Beach Rd - Chapmans Peak
Folk Tattoo & Piercing Studio,folktattoo.co.za,+27 67 398 3718,South Africa,7600,Stellenbosch,13 Louw St - Stellenbosch Central
Black.Inktattoostudio,,,South Africa,7349,Cape Town,Mpangele St - Atlantis
Black Tiger Ink,https://www.facebook.com/Black-Tiger-Ink-608937229628650,+27 82 863 8144,South Africa,7100,Cape Town,655 Delft Main Rd - Delft South
Ink Aesthetics,https://inkaestheticsorg.wordpress.com/,,South Africa,7441,Cape Town,Beach Rd - Melkbosstrand
Betha_Ink Tattoo & Piercing,,+27 67 946 9011,South Africa,8000,Cape Town,24 Plein St - Cape Town City Centre
Laser Clinic,https://www.laserskinclinic.co.za/,+27 21 555 3717,South Africa,7441,Cape Town,316 Koeberg Rd - Milnerton
Dust Tattoo,dusttattoo.co.za,+27 71 010 3774,South Africa,7925,Cape Town,Unit 11 - The Royal - 4 Queens Park Ave - Salt River
Primal Culture Tattoo Studio,,,South Africa,7800,Cape Town,108 Main Rd - Plumstead
Tattootimes,https://zen-tattoo-design.business.site/?utm_source=gmb&utm_medium=referral,+27 81 701 5046,South Africa,7785,Cape Town,11 Kromriver Cl - Portland
Ink Stained Skin,,,South Africa,7925,Cape Town,21 Lower Collingwood Rd - Observatory
The Tattoo Den,,+27 73 373 4681,South Africa,7785,Cape Town,10 Wellington - Portland
Just The Tip Art Studio,,+27 83 887 3877,South Africa,7441,Cape Town,6 Oceanus Way - Phoenix
Tattoo,,,South Africa,7950,Cape Town,Belvedere Rd - Muizenberg
Tattoo Furniture Design,,+27 21 421 1338,South Africa,8001,Cape Town,Culemborg Ctr - Oswald Pirow St - Foreshore
Disciples Ink Hermanus Tattoo Studio,disciplesink.co.za,+27 78 464 1660,South Africa,7200,Hermanus,3 High St - CBD
Inkfinity Tattoo Studio,https://www.facebook.com/inkfinity.tattoo.studio/,+27 74 664 6464,South Africa,7500,Cape Town,242 Voortrekker Rd - Parow
Lost Angel Tattoos Pty Ltd,lostangeltattoos.co.za,+27 71 085 2805,South Africa,7500,Cape Town,26 Panorama Rd - Panorama
Old Owl Ink,https://oldowlink.business.site/?utm_source=gmb&utm_medium=referral,+27 72 757 2488,South Africa,7140,Strand,Shop 2 - Glacier Bay Centre - 34 Michau St
Sacred Life Tattoos And Piercing,https://www.facebook.com/sacredlifetattoo,+27 83 391 9807,South Africa,7130,Cape Town,1 Anderson St - Strand
Ink Inc Tattoos & Body Piercing,,+27 72 147 6076,South Africa,7140,Cape Town,Shop 2 - Beach House - 74 Beach Rd - Strand
Valkyrie Tattoos,https://www.facebook.com/valkyrietattoos/,+27 79 505 5175,South Africa,7130,Cape Town,1 Anderson St - Strand
Henna Tattoos,http://www.hennatattoos.co.za/,+27 82 324 3741,South Africa,7945,Cape Town,"14 Highgrove, - 35 Tokai Rd - Tokai"
Davido.Ink Tattoo Boutique,,+27 71 584 4218,South Africa,7140,Somerset West,Shop 3 - Imibala Centre - 11 Bright St
Ba Ink Tattoos And Piercings,https://www.facebook.com/baink.co.za,+27 68 539 8127,South Africa,7570,Kraaifontein,Peerless Park East
Rrd Tattoo Supplies,rrdtattoosupplies.co.za,+27 71 892 9941,South Africa,7140,Cape Town,Online Business - Strand
Tattoo Elite,,+27 71 223 9485,South Africa,7195,Cape Town,Shop I - 31 Harbour Rd - Kleinmond
Mimi D Tattoo,https://www.instagram.com/mimi_d_tattoo/,,South Africa,8001,Cape Town,136 Buitenkant St - Gardens
Mob Inc Tattoo Bistro,https://www.facebook.com/profile.php?id=100001426955336,+27 21 434 9701,South Africa,8005,Cape Town,206 Main Rd - Sea Point
Carvel Tattoo & Lifestyle Studio,carvel.co.za,+27 82 044 2038,South Africa,7975,Cape Town,65 Beach Rd - Chapmans Peak
Inkmunition Tattoo Piercing And Paintball Shop,,+27 21 903 0625,South Africa,7580,Cape Town,2 Langverwacht Rd - Kuils River
Necrobeartattoos,,,South Africa,7130,Cape Town,10 Berrydel Ave - Greenway Rise
Hillbilly Ink Tattoos & Piercing,https://hillbilly-ink-tattoos-piercing.business.site/?utm_source=gmb&utm_medium=referral,+27 82 924 6803,South Africa,2092,Johannesburg,55 St Elmo Ave - Mayfair West
Studio57 - Canvas Cultique Tattoo Studio,canvascultique.co.za,+27 83 398 3571,South Africa,2193,Randburg,57 6th St - Parkhurst
Royal Inked - Centurion,royalinked.co.za,+27 82 827 2591,South Africa,0157,Centurion,unit 8 - Ladies Lane - 21 Estcourt Ave - Wierdapark
Python Ink Tattoos,pythonism.co.za,+27 67 173 1374,South Africa,1911,Vanderbijlpark,127 Piet Retief Blvd - Vanderbijlpark S. E. 1
Handstyle Tattoos 7Th Street Studio,handstyletattoos.co.za,+27 72 540 8368,South Africa,2109,Johannesburg,Shop 4B - 7th St - Melville
A Fine Madness,https://www.facebook.com/afinemadness.tattoostudio/,+27 12 342 1081,South Africa,0083,Pretoria,83 Allcock St - Colbyn
Anima Mundi Tattoo Studio,,+27 11 845 1270,South Africa,1500,Benoni,45 Victoria Ave
Blazing Hand Tattoos,blazinghand.co.za,+27 60 562 1776,South Africa,1619,Kempton Park,Shop 5 - Goodies for Gardens - 4 Vlei St - Glen marais
Onixx Tattoos & Piercings,,+27 63 954 4329,South Africa,0821,Pretoria,549 President Steyn St - Pretoria North
Archive Tattoo Studio,archivetattoos.co.za,+27 71 612 7737,South Africa,0084,Shere,First floor Building 1 In Shere Lifestyle Centre - 4 Graham Rd
Dragon Fire Tattoos,dragonfire.co.za,+27 83 231 4364,South Africa,1930,Vereeniging,River Square Shopping Centre - P2A - Nile Dr - Three Rivers
Tattoo Tony Creations Custom Tattoo Lounge,,+27 12 753 8156,South Africa,0081,Pretoria,Gift Acres Convenience Centre - Lynnwood Rd - Lynnwood Ridge
Humdinger Tattoo Emporium,humdingertattoos.co.za,+27 78 152 4809,South Africa,0181,Pretoria,674 Elvira St - Garsfontein
Tattoos & Body Piercings By Dee,http://www.tattoosbydee.co.za/,+27 83 669 0770,South Africa,2001,Johannesburg,Next to Boston College - 36 De Beer St - Braamfontein
Black And White Tattoo Studio,blackandwhitetattoostudios.co.za,+27 84 288 7525,South Africa,2196,Sandton,130 11th St - Parkmore
Eternal Addiction Tattoos.,https://www.facebook.com/eternaladdictiontattoos/,+27 71 375 6391,South Africa,1035,Emalahleni,no 6b - Greenhill Ave - Highveld Park
Inksane Tattoos.Sa,inksanetattoossa.co.za,+27 82 411 4345,South Africa,0182,Pretoria,Shop B1 - 16 Lavender Rd W - Wonderboom
Sorry Mom Tattoo Art Studio,sorrymomtattoos.co.za,+27 71 674 6801,South Africa,2062,Johannesburg,Shop UL22 - Lonehill Shopping Centre - Lonechill Blvd - Lone Hill
Adam'S Eden Tattoos,,+27 71 493 5480,South Africa,1609,Edenvale,12 Emma St - Eden Glen
House Of Holland Tattoos,houseofhollandtattoos.com,+27 60 759 0706,South Africa,1935,Vereeniging,117 General Hertzog Rd - Three Rivers
Artrageous Tattoos,artrageous.co.za,+27 84 547 4614,South Africa,1514,Benoni,86 Pretoria Rd - Rynfield
Inksanity Tattoos & Body Piercings,,+27 71 741 9972,South Africa,2520,Potchefstroom,8 Ross St - Potchindustria
The Tattoo Gallery,thetattoogallery.co.za,+27 11 794 3821,South Africa,2156,Johannesburg,Upper Level - Shop 14 Honey Crest Shopping Centre - Beyers NaudÃ© Dr & - Duiker Ave - Randpark Ridge
The Kapital Tattoo Collective,,+27 66 236 8371,South Africa,0186,Pretoria,84 Geelhout St - Moregloed
Tattoocharm - Where Ink And Art Meet,tattoocharm.co.za,+27 61 819 0085,South Africa,1500,Benoni,146 Goudvis Rd - Benoni North AH
Blackrose Tattoos,blackrosetattoos.co.za,+27 72 114 3252,South Africa,2194,Randburg,12 Ebbehout St - Sharonlea
Vain Venom Ink Tattoo And Piercing Studio,,+27 66 521 5520,South Africa,0081,Pretoria,22 Halter Place - Denneboom Rd - Wapadrand
The Painted Lady Tattoo,,+27 11 783 9991,South Africa,2196,Sandton,72 11th St - Parkmore
Ink To Skin Tattooing,https://inktoskin.co.za/,+27 84 273 9364,South Africa,2091,Johannesburg South,Vitality Medical Centre - 184 Columbine Ave - Mondeor
Style Ink Tattoos,https://styleink-tattoos.business.site/?utm_source=gmb&utm_medium=referral,+27 79 495 2456,South Africa,1501,Benoni,51 Farrar St - Northmead
Buzz Inc Tattoo Studio,https://www.facebook.com/BuzzTattoo/,+27 83 355 5537,South Africa,1709,Johannesburg,All Saints Centre - Windsor Way - Olivedale
Mambos Tattoo Studio,,+27 78 629 2375,South Africa,0187,Centurion,5413 Imbongolo St - Olievenhoutbos 24
Skin Candy Tattoos,https://www.facebook.com/skincandytatz/,+27 81 598 1204,South Africa,0182,Pretoria,248 Ben Viljoen St - Pretoria North
J.C Tattoo & Body Piercing,,+27 76 658 2727,South Africa,2093,Johannesburg,139 Main Rd - Newlands
Eye Candy Tattoo Studio,https://heytattoo.co.za/0181393/Eye_candy_tattoo_studio,+27 72 310 0036,South Africa,0300,Rustenburg,0300 - 174 a Kock St
Sa Hardcore Social Club,,+27 11 327 2812,South Africa,2193,Randburg,16A 4th Ave - Parkhurst
1933 Classic Tattoos,http://www.1933.co.za/,+27 11 403 0077,South Africa,2000,Johannesburg,33 De Korte St - Braamfontein
Awhe Tattoo & Lifestyle Studio,awhetattoo.co.za,+27 72 248 0092,South Africa,1460,Boksburg,100 Elizabeth Rd - El Ridge Office Park D5 - Bartlett
Lah Blue Tattoo Co.,lahbluetattoo.co.za,+27 66 372 8680,South Africa,1459,Boksburg,44 Van Wyk Louw Dr - Parkrand
Romans Tattoo And Piercing,romanstattoo.co.za,+27 76 373 7380,South Africa,2188,Northriding,Shop A23 Northview Shopping center Northriding
Dragon Heart Tattoo And Piercing Studio,http://www.dragonhearttattoo.co.za/,+27 66 238 7227,South Africa,0044,Pretoria,Parkview Shopping Centre Inside Jack and Charlie's Motorcycles c/o Garsfontein and Hospital Street Moreleta Park - East
True Blue Professional Tattoo Studio,https://truebluetattoos.co.za/,+27 62 036 4052,South Africa,0081,Pretoria,13 Firwood Ave - Hazelwood
Jean Tattooing,,+27 13 690 1372,South Africa,1049,Emalahleni,25 Klipspringer Ave - Reyno Ridge
Inkasi Tattoo,https://www.facebook.com/inKasiTattoo/,+27 81 500 0359,South Africa,1809,Soweto,10680 Bhele St - Pimville Zone 1
Totem Ink Tattoo Studio,totemink.co.za,+27 79 012 4088,South Africa,1500,Benoni,15 Honiball St - Rynfield
The Sublime Sideshow Tattoo Emporium,https://sublimesideshow.wordpress.com/,+27 73 208 5099,South Africa,0216,Hartbeespoort,2 Scott St - Schoemansville
Little Hollow Tattoo Studio,littlehollowtattoostudio.com,+27 64 284 5124,South Africa,2191,Sandton,242 Bryanston Dr - Bryanston
Sheknows Ink Tattoo Studio,https://www.facebook.com/sheknowsink,+27 76 421 1063,South Africa,2194,Randburg,93 Bram Fischer Dr - Ferndale
Geoff Squires Tattoos,geoffsquirestattoos.co.za,+27 84 847 9527,South Africa,1609,Edenvale,90 Palliser Rd - Eastleigh
Shadow Line Tattoos,,+27 73 628 0875,South Africa,1734,Johannesburg,Shop 14 - Noordheuwel Mall - 110 Van Oordt St - Krugersdorp
John'S Custom Tattoo & Piercing,,+27 82 434 2007,South Africa,1401,Johannesburg,94C Rietfontein Rd - Primrose
Fallen Heroes Tattoo // Art,fallenheroes.co.za,+27 11 028 0994,South Africa,2195,Randburg,249 Barry Hertzog Ave - Emmarentia
Sacredserpent,,+27 79 526 8498,South Africa,,St Andrews,Unit U4B - Quality House Office Park - 33 St Christopher Rd
Exclusive Ink,exclusiveink.co.za,+27 63 143 9624,South Africa,2060,Johannesburg,Cramerview Centre - 277 Main Rd - Bryanston
Wayne'S Tattoos,,+27 11 682 3798,South Africa,2190,Johannesburg South,Comaro Shopping Center - Comaro St - Bassonia
Rock Steady Tattoos,rocksteadytattoos.co.za,+27 67 746 1161,South Africa,0157,Centurion,7 Tegel Ave - Highveld
Punky Tattoos And Piercings Studio,,+27 78 194 5123,South Africa,1939,Vanderbijlpark,Van Rhijn St - Vanderbijlpark C. C.
Hand Of Mysteries Tattoo,https://www.heartandhandtattoos.com/,,South Africa,2030,Johannesburg,Shop 20 - Devon Valley Centre - 122 9th Ave - Weltevredenpark
Third Eye Tattoo & Art Studio,,+27 82 612 3421,South Africa,0145,Pretoria,42 Golf St - Waterkloof
Iron Faith Tattoos,,+27 84 422 0322,South Africa,1514,Benoni,169 Pretoria Rd - Rynfield
Unique Piercings & Tattoos,https://uniquepiercingstattoos.business.site/?utm_source=gmb&utm_medium=referral,+27 11 427 1177,South Africa,1501,Benoni,22 O'Reilly Merry St - Northmead
In City Ink Tattoos And Body Piercings,https://www.instagram.com/incityink/,+27 82 617 4599,South Africa,0001,Pretoria,385 Helen Joseph St - Pretoria Central
Tattoo Styles,http://www.tattoostyles.co.za/,+27 82 415 6023,South Africa,0063,Pretoria,Menlyn Park - Atterbury Rd - Mgnlo Park
Hillside Tattoo Studio,https://www.hillsidetattoo.net/,+27 68 422 0848,South Africa,2196,Johannesburg,396 Jan Smuts Avenue Randburg - Craighall Park
House Of Holland Tattoo Emporium Pta,https://www.houseofholland.online/,+27 72 779 6423,South Africa,0181,Pretoria,57 George Storrar Dr - Groenkloof
Os By Tshepo(Private Piercing/Tattoo Shop),tattoosbytshepo.co.za,+27 62 241 5237,South Africa,2001,Johannesburg,24 Siemert Rd - New Doornfontein
Tattoo Design Studio,,+27 82 579 7802,South Africa,0186,Pretoria,1237 Frayne St - Queenswood
Ytt Tattoo Studio,,+27 83 446 4277,South Africa,0082,Pretoria,322 Daphne Ave - Mountain View
Kevins Kustom Tattoos At Sacred Art Tattoo Lounge,https://www.facebook.com/kevinskustomtattoos/,+27 73 144 0115,South Africa,2092,Johannesburg,11 Cadoza St - Westdene
Cobra Kc Tattoos (Ckct),,+27 83 293 8390,South Africa,,Bryanston,Gemelli - Main Rd
Tattoo'S By Mr Dee'S,,+27 82 526 0333,South Africa,2123,Johannesburg,Shop No. 2 - Northcliff Corner Shopping Centre - Beyers Naude Dr - Northcliff
True Love Tattoo,,+27 10 495 6014,South Africa,2193,Randburg,Shop no. 9 Linden Square Shopping Centre - Corner of 4th Avenue and - 8th St
Mo Tattoos,,+27 71 984 1415,South Africa,1632,Tembisa,112 Ulundi St
Dark Rose Tattoo,https://darkrose-tattooshop.business.site/?utm_source=gmb&utm_medium=referral,+27 76 189 4904,South Africa,1961,Meyerton,54 Loch St
Vitamin Ink Tattoos,m.facebook.com,+27 82 513 3687,South Africa,0144,Centurion,Shop 3a Eco Boulevard Shopping Center - Eco-Park Estate
Emerald Rain Tattoos,emeraldraintattoos.com,+27 73 580 4842,South Africa,2195,Randburg,39 Gleneagles Rd - Greenside
Alberante Ink (Tattoo Saloon),https://www.facebook.com/tattoosaloon.co.za?_rdc=1&_rdr,+27 73 175 1024,South Africa,1457,Alberton,11 Meredy St - Randhart
Creative Tattoo Studio,https://creative-tattoo-studio-tattoo-shop.business.site/?utm_source=gmb&utm_medium=referral,+27 71 941 0295,South Africa,1911,Vanderbijlpark,253 Louis Trichardt Blvd - Se7
Fantasy Tattoos,,+27 82 804 4834,South Africa,1449,Alberton,Cnr Jochem Van Bruggen and Nelson Mandela Ave Opposite Lua Cafe Grey business complex
Tattooinc Tattoo Equipment & Supplies,https://tattooinc.co.za/,+27 82 418 6448,South Africa,0186,Pretoria,17 Dias Place - Doornpoort
Evil Ink Tattoos,,+27 73 373 5897,South Africa,1724,Honeydew,28 Hoeveld Rd - Ruimsig
Mythical Ink Tattoo'S,,+27 81 359 4340,South Africa,0082,Pretoria,1018 Market St - Claremont
Greedy Bear Tattoos,,+27 84 424 1717,South Africa,1801,Soweto,818 Dhlomo Ln - Mofolo Central
Colour Me Inn Tattoo Studio,,+27 84 643 7330,South Africa,0084,Pretoria,211 Booysen St - Eloffsdal
Black Ice Tattoos,,+27 76 266 8173,South Africa,1759,Randfontein,16 Homestead Ave - Homelake
Rising Dragon Tattoo,http://www.risingdragontattoo.co.za/,+27 73 314 0437,South Africa,2191,Johannesburg,64 Crawford Dr - Douglasdale
Sinister Inc Tattoo And Piercing Pty Ltd,sinisterinc.co.za,+27 81 810 3966,South Africa,0182,Pretoria,162 A Bessiebos Ave - Wonderboom
Ardor Tattoo Collective,ardortattoo.co.za,+27 62 714 8170,South Africa,0182,Pretoria,385 Jack Hindon St - Pretoria North
Ink By Nala Tattoos,https://www.instagram.com/p/B-9Exkbphky/,+27 12 516 0050,South Africa,0083,Pretoria,The Fields - 1078 Burnett St - Hatfield
Da Vinci Tattoo Art,https://blvkhvndart.wixsite.com/davincitattooart,+27 62 801 8809,South Africa,1449,Alberton,18 Penzance St - New Redruth
Tattoo Styles,tattoostyles.co.za,+27 82 415 6023,South Africa,0133,Centurion,Shop 110A - Nellmapuis Dr - Irene Farm Villages
Royal Tattoos (Pty) Ltd,https://royal-tattoos-and-smokers.business.site/?utm_source=gmb&utm_medium=referral,+27 83 566 5126,South Africa,1875,Soweto,Cemetery Rd - Bram Fischerville
One More Tattoo,onemoretattoo.co.za,+27 78 853 6464,South Africa,2169,Johannesburg,57 Randpark Dr - Randpark Ridge
Tattoo Styles,http://www.tattoostyles.co.za/,+27 82 415 6023,South Africa,1552,Brakpan,Shop 115 - Mall@Carnival Hiedelburg Road & - Airport Rd - Dalpark
Bunnycorpse Custom Tattoo & Piercing Studio,https://www.facebook.com/bunnycorpsetattoos/,+27 81 041 3471,South Africa,1055,Middelburg,Shop 3 - 30 Wes St
Rumble And Hum Tattoo,https://www.instagram.com/rumbleandhum/,+27 66 150 8123,South Africa,1709,Johannesburg,Shop 25 - Town square Shopping centre - Weltevredenpark
The Tattoo Studio 012,,+27 82 622 0106,South Africa,0081,Pretoria,241 Serene St - Garsfontein
Tattoo Styles,http://www.tattoostyles.co.za/,+27 82 415 6023,South Africa,2007,Germiston,55 Van Buuren Rd - Bedfordview
Moonlight Tattoo Studio,http://www.moonlighttattoos.co.za/,+27 64 936 2156,South Africa,0186,Pretoria,17 Dias Place - Avenue
Climaxink Tattoos,https://www.facebook.com/ClimaxInk/,+27 83 661 1100,South Africa,2302,Secunda,4 Vaalrivier St
The Tattoo Crew,https://heytattoo.co.za/0841495/The_Tattoo_Crew,+27 83 239 8052,South Africa,2092,Johannesburg,The Boulevard - Cnr Main Rd and Ayr Rd - Melville
Assari Tattoo Studio,https://www.assaritattoostudio.com/,+27 76 964 6193,South Africa,1609,Modderfontein,Assari Tattoo Studio Stoneridge Dr & - Greenstone Pl - Greenstone Hill
The Write Hand Tattoo Studio Unit 4,,+27 81 773 9353,South Africa,1459,Boksburg,Unit 4 - 1 Limbahout Rd - Bardene
Eclipseank Tattoo Ink,,+27 76 436 1081,South Africa,1693,Midrand,740 June Rd - Ivory Park
Idol Ink Tattoos,https://idol-ink-tattoos.business.site/,+27 72 175 3727,South Africa,0001,Centurion,Shop Cnr John Voster drive and Akkerboom street - Centurion Gate Shopping Centre.
Dream Theatre Tattoo Studio,,+27 79 808 2158,South Africa,1501,Benoni,4 6th Ave - Northmead
Rose Gold Tattoos,https://www.facebook.com/RoseGoldTattoosJHB,+27 82 829 0323,South Africa,1448,Alberton,11 Hennie Alberts St - Brackenhurst
Ethel Tattoo Artist,,+27 76 235 8235,South Africa,2092,Johannesburg,43 Frost Ave - Braamfontein Werf
Wasted Space Tattoo Studio,,+27 79 898 3019,South Africa,1609,Edenvale,41 Van Riebeeck Ave
Inkrider Tattoos,,+27 60 864 2777,South Africa,1911,Vanderbijlpark,19 Bezuidenhout St - Se6
Papa Tattoo(Masenya),https://www.facebook.com/lethabo.johnson.7,+27 76 756 7633,South Africa,0083,Pretoria,Francis baard & - Beckett St - Arcadia
Old Ink Tattoos,,+27 74 037 1370,South Africa,1835,Roodepoort,Riverview shopping center corner of florin and - Krugerrand Rd - Strubens Valley
Zwi Tattoos,https://zwitattoos.co.za/,+27 71 966 8270,South Africa,1632,Tembisa,132 D M Marokane Dr - Maokeng
Tattoo Styles,tattoostyles.co.za,+27 82 415 6023,South Africa,0046,Centurion,Shop 110A - Irene Farm Villages - Centurion Golf Estate
Chapman'S Tattoo Emporium,chapmanstattoos.co.za,+27 84 985 8420,South Africa,0157,Centurion,Irene Villas - Shop 6 - Main Rd - Irene
Tazz Ink Tattoo,https://www.instagram.com/tazz_maniac01/,+27 72 105 9724,South Africa,1862,Diepmeadow,8069 Khambule St - Diepkloof Zone 6
Rugged Mate Tattoos N Piercings Studio,https://www.facebook.com/Rugged-Mate-Tattoos-n-Piercings-Studio-1421231958161514/,+27 84 230 3322,South Africa,0001,Pretoria,361 Johannes Ramokhoase St - Pretoria Central
Wyld@Heart Tattoo & Piercing,wyldatheart.co.za,+27 79 873 1937,South Africa,0157,Centurion,18 Panorama Rd - Rooihuiskraal
Hummingbird_Sa Tattoo Studio,,+27 76 136 2473,South Africa,0153,Gauteng,1193/94 Segwagwa street Block FF - Soshanguve
The Southern Rebellion Tattoo Company,thesouthernrebellion.co.za,+27 64 507 5342,South Africa,2030,Randburg,Corner of Beyers Naude and - Willson St - Fairland
B-Inked Tattoo & Piercing Studio,https://britstattoos.wixsite.com/binked,+27 84 019 5687,South Africa,0250,Brits,31 Rutgers St
Dipowers Ink Tattoo Shop,chrome-error://chromewebdata/,+27 76 157 3765,South Africa,2090,Alexandra,1511 South Africa Crescent
Walter'S Tattoos,https://www.facebook.com/walterstattoosadmin,+27 61 735 1883,South Africa,0083,Pretoria,95 Manning St - Colbyn
Inkhabour Tattoos,https://payback8nk.business.site/?utm_source=gmb&utm_medium=referral,+27 71 184 0744,South Africa,0300,Rustenburg,122 Kerk Street ShopriteBuilding UpStairs shop no3A CBD
Mooi Ink Tattoos Pretoria,,+27 78 708 8885,South Africa,0001,Pretoria,32 Bureau Ln - Pretoria Central
Wild Rose Tattoo Studio,,+27 63 501 5046,South Africa,1459,Boksburg,224 Rondebult Rd - Libradene
Flash Ink Tattoo Studio,,+27 64 332 4214,South Africa,0156,Akasia,27 Kolgans Ave - Ninapark
Ink Rebelz Tattoo Studio,,+27 78 320 8051,South Africa,0300,Rustenburg,39-45 Boom street (shop1C - CBD
Skinink Tattoos,https://www.facebook.com/SkinInkza,+27 61 719 8664,South Africa,1550,Springs,18973 Rapetsoa St - White City
Alain Tattoos,alaintattoos.co.za,+27 82 448 0716,South Africa,2192,Johannesburg,28B Garden Rd - Orchards
Atramenti Tattoo Studio,,+27 61 585 3851,South Africa,,cnr R512 & R27 Old Rustenburg Road Damdoryn,
Angels Ink Tattoos,,,South Africa,2195,Randburg,9 West St - Greymont
Chris At The Dark Raven Tattoo Lounge,https://www.facebook.com/Thedarkraventattoolounge,+27 82 260 9199,South Africa,0184,Pretoria,Plaza Link Center - Waverley
L'Encre Tattoo Studio,https://lencre1609tattoo.wixsite.com/lecre,+27 60 957 4595,South Africa,1609,Johannesburg,16 Cecil Awret Rd - Edenvale
Temaro Temporary Tattoos- South Africa,https://temaro.co.za/,+27 64 077 1666,South Africa,1619,Johannesburg,20 Pine Ave - Kempton Park Cbd
Tattoo Maniacs Jhb,https://tattoo-maniacs-jhb.business.site/?utm_source=gmb&utm_medium=referral,+27 67 321 8403,South Africa,1460,Johannesburg,73 Field Rd - Witfield
3D Ink Tattoo Studio,,+27 81 585 6823,South Africa,2999,Rustenburg,32A Heystek St
Peter'S Tattoo Studio,https://www.facebook.com/Peters-tattoo-studio-101574421299891/,+27 71 770 0540,South Africa,0187,Centurion,Bogosi St - Rua Vista
Khraft Tattoo Studio,,+27 73 357 0331,South Africa,1983,Sebokeng,18979 Zone 14 - Sebokeng Unit 14
The Tattoo Shop,https://www.facebook.com/TheTattooShopParys/about/?ref=page_internal,+27 82 551 6450,South Africa,9585,Parys,100 Bree St
Steamed Rabbit Tattoos,steamedrabbit.co.za,+27 79 638 2741,South Africa,2169,Johannesburg,The Tattoo Gallery Honeycrest Shopping Center - Randpark Ridge
Inked Tattoo Shop,,+27 83 589 4718,South Africa,1740,Krugersdorp,56a Human St
Jt'S Tattoo & Design,,+27 12 333 0729,South Africa,0186,Queenswood,255 Garret Rd
Wasted Space Tattoos,,,South Africa,1401,Germiston,2A Turnhout Ave - Sunnyridge
Jayone.Ink Tattoo Studio,,,South Africa,1868,Soweto,2736A Zwelitsha St - Zola
Zero To Hero Tattoos,,+27 60 426 4265,South Africa,1496,Nigel,4763 Ranunculus St - Bluegum View
Phoenix Tattoo Parlour,,,South Africa,0216,Hartbeespoort,Snake Junction - Scott str - Hartbeespoort
Coolrunnings Tattoo & Body Piercing Studio,,+27 72 174 9589,South Africa,2999,Rustenburg,44 Von Wielligh St
Eyecandi Tattoos,https://www.facebook.com/candimcl,+27 72 928 7859,South Africa,1470,Johannesburg,1000 Kingfisher Ave - Sunward Park
Chris Tattoos,,+27 60 411 8973,South Africa,1520,MOKGOBA,MOKGOBA - TSAVO STREET - Daveyton
Getinked Tattoo Supplies Pty(Ltd),,,South Africa,0084,Pretoria,844 Haarhoff St - Rietfontein
Raw Ink Tattoo Studio,,,South Africa,1841,Johannesburg,2381 Palm Dr - Orange Farm
Inkology Tattoo Studio,,+27 71 482 8201,South Africa,0154,Pretoria,90 Willem Botha Dr - Eldoraigne
Elysium Tattoo Emporium,,+27 82 533 6535,South Africa,0081,Pretoria,279B Lynnwood Rd - Menlo Park
Monsters Ink Tattoos,,+27 60 557 4060,South Africa,2115,Randburg,corner - Lawley Ave - Northcliff
It'S Blackbyrd Tattoo Studio,https://its-blackbyrd-tattoo-studio.business.site/?utm_source=gmb&utm_medium=referral,+27 84 013 4901,South Africa,1947,Sasolburg,37 Waterson St
Joint Tattoo Art,,+27 76 037 2044,South Africa,2309,Bethal,Emzinoni
Eternal Art Tattoos,,+27 76 810 1401,South Africa,1039,Emalahleni,Shop WK01 - Cnr. Stevenson & O R Tambo Rd - Emalahleni Ext 16
Sabata & Tjappies,,+27 84 828 8667,South Africa,0081,Pretoria,67 Atterbury Rd & Saal Street - Zwavelpoort
Tattoo Bar,,+27 65 726 2703,South Africa,1609,Edenvale,71 Hendrik Potgieter St
Tattiki Tattoo,,+27 11 824 4357,South Africa,2104,Johannesburg,South Rd - Linden
Inferno Tattoos,,+27 11 083 5674,South Africa,2141,Sandton,unit 35 - Matumi Sands - 7 The Straight Ave - Pine Slopes AH
The Ink Lab Tattoos And Piercings,,+27 61 053 6167,South Africa,0190,Mabopane,915 Block X Ext - Mabopane Unit X
Kyle B Tattoo,,,South Africa,2195,Randburg,249 Barry Hertzog Ave - Emmarentia
Atpink Tattoo'S ÐÿŽ,,+27 71 615 3213,South Africa,1003,Cullinan,4406 Extension 2 - Refilwe
Tattoo Dynasty,,,South Africa,0186,Pretoria,255 Visvanger Rd - Montana AH - Pretoria - 0186 Visvanger Rd - Montana AH
Black Crystal Ink Tattoo Studio,,+27 72 893 1001,South Africa,1861,Soweto,824 Ibhoy St - Naledi
Tattoo Girl,,+27 83 633 4576,South Africa,1741,Krugersdorp,Shop 4 4th street - Krugersdorp North
The Needle Dance - Tattoo And Permanent Makeup Studio,theneedledance.com,,South Africa,2196,Sandton,110 Olympia Ave - Parkmore
Tman Knights Tattoo Studio,,+27 73 473 8465,South Africa,1818,Soweto,293 Chris Hani Rd - Chiawelo
Tattoo Removal Studio (Body And Permanent Makeup Removal),tattooremovalstudio.co.za,+27 82 920 3653,South Africa,0081,Pretoria,1006 Olympus Dr - Faerie Glen
Ds Tattoos,,,South Africa,0152,Soshanguve,SK 14 - Induli St - Soshanguve South
Fine & Foxy Permanent Makeup & Tattoo Removal Clinic,,+27 83 676 7774,South Africa,1449,Alberton,83 Nelson Mandela Ave - Randhart
Tattoo Removal,,,South Africa,1042,Emalahleni,8 Denhaag St - Die Heuwel
Instinct Needles,instinctneedles.co.za,+27 79 759 0386,South Africa,4092,Chatsworth,92 Moorton Dr - Risecliff
Teardrop Tattoo Parlour,teardroptattoo.co.za,+27 79 014 2954,South Africa,4319,Durban,13 The Lighthouse - Equinox Road - Umhlanga Ridge - Umhlanga
Freespirit Tattoo Studio,,,South Africa,4140,Amanzimtoti,1Nelson - Palmer Avenue - Warner Beach
Bluff Ink Tattoo Studio,,+27 72 513 9194,South Africa,4052,Bluff,24 Stableford Rd - bayview
Fine Line Tattoo And Piercing,finelinetattoo.co.za,+27 87 700 2695,South Africa,4051,Durban North,8 Mackeurtan Ave
Trade Mark Tattoo,https://www.trademarktattoos.com/,+27 31 303 8713,South Africa,4001,Berea,295 Florida Rd - Windermere
Surreal Tattoos,surrealtattoos.co.za,+27 81 508 4852,South Africa,4319,Durban,Shop 10 - The Zen - 31 Zenith Dr - Umhlanga Ridge
Ink It Tattoos,inkittattoos.co.za,+27 81 414 3941,South Africa,3610,Durban,Unit 10 Pineville Junction - 81 Stapleton Rd - Cowies Hill Park
Sin On Skin,,+27 83 700 0459,South Africa,4083,Durban,Glenwood Village - Glenwood
Teez Kustomz,,+27 82 267 3118,South Africa,4319,Durban,31 Zenith Dr - Umhlanga
Dark Angel Tattoos & Body Piercing,,+27 73 103 0447,South Africa,4068,Durban,1 Spanbury Pl - Eastbury
Red Webz Tattoo Studio,,+27 82 570 8463,South Africa,4016,Durban,152 Kenneth Kaunda Rd - Durban North
Monsta Ink Ushaka,monstaink.co.za,+27 68 186 6657,South Africa,4001,Durban,Shop D14A - Ushaka Marine World - 15 Southampton St - Durban Central
Artura Tattoo Lounge,https://arturatattoolounge.co.za/,+27 82 776 8000,South Africa,4420,Dolphin Coast,19 Park lane avenue umhlanga - The Ridge
Skin Gallery Tattoos,hilltribe.co.za,+27 73 052 2992,South Africa,4420,Dolphin Coast,Shop 24 - Balvista Centre - 22 Sandra Rd - Ballito
The Golden Tiki,,+27 72 941 7454,South Africa,4399,Dolphin Coast,22 Sandra Rd - Ballito
Monsta Ink Pavilion,monstaink.co.za,+27 68 122 5205,South Africa,3630,Durban,s - The Pavilion - near Cinema - Jack Martens Dr - Westville
Electric Eye Tattoo,chrome-error://chromewebdata/,+27 31 561 2555,South Africa,4320,Umhlanga,13 McCausland Cres
Pro Rider Tattoos,,+27 76 378 9467,South Africa,4068,Durban,Millenium Market - Pandora St - Phoenix
Smokin Tattoos,https://heytattoo.co.za/0333583/Smokin_Tattoos,+27 73 281 2488,South Africa,4126,Amanzimtoti,36 Inyoni Cres - Athlone Park
Tried And True Tattoo,,,South Africa,4051,Durban North,47 Ashley Ave - Glen Ashley
Cp Ink Tattoos,,+27 67 843 2296,South Africa,4001,Durban,Shop 14B - 91 Somtseu Road Mangrove Beach Center - North Beach
Pat'S Tats Bluff,https://www.facebook.com/PatsTatsBluff/,+27 79 582 8363,South Africa,4052,Bluff,255 Lighthouse Rd - Fynnlands
Angel Art Tattoo And Piercing Studio,,+27 72 974 8196,South Africa,4126,Amanzimtoti,51 Khotho Mkhunya Rd - Bella Rock
Evolution Inks Tattoo Shop,https://evolutioninks92.wixsite.com/tattoos,+27 64 657 7570,South Africa,4001,Durban,Unit 13 - 28 Mackeurtan Ave - Swapo Rd - Durban North
Mike Artura - Artura Tattoo Studio,,+27 82 776 8000,South Africa,3650,Hillcrest,B12 Block Hillcrest Park - 45 Ridge Rd
Simba Tattoos,https://simba-tattoos.business.site/,+27 61 457 6351,South Africa,4339,Verulam,41 Heathrow Ave - Riet River
Step Up (Tattoos// Piercings// Permanent Make Up),https://stepuptattoos.business.site/?utm_source=gmb&utm_medium=referral,+27 72 117 7553,South Africa,3610,Durban,shop 35 (ground level - Kloof Village Mall - 33 Village Rd - Kloof
Alpha Assassin Tattoo,alphaassassintattoo.co.za,+27 71 538 9633,South Africa,3624,Outer West Durban,12 Cadmoor Rd - Assagay
Arbitrary Tattoo Studio,,+27 72 702 5888,South Africa,3201,Pietermaritzburg,101 Roberts Rd - Clarendon
South Side Ink,chrome-error://chromewebdata/,+27 84 346 2616,South Africa,4319,Durban,Shop B05 - Granada Square - 16 Chartwell Dr - Umhlanga
Killer Innk Tattoo,,+27 73 833 2016,South Africa,3201,Pietermaritzburg,110 Balhambra Way - Newholme
Muggin Needle Tattoo Studio,,+27 76 332 1534,South Africa,4052,Durban,130 Nirvana Rd - Bluff
Inkspressions Tattoo & Piercing,,+27 83 540 5926,South Africa,3201,Pietermaritzburg,31 Woodhouse Rd - Scottsville
Archangel Ink Sa,https://www.instagram.com/archangel.ink/,+27 66 547 2493,South Africa,4052,Durban,378 Tara Rd - Bluff
Wespe Custom Arts,,+27 65 588 8673,South Africa,4126,Amanzimtoti,289 Andrew Zondo Rd
Nightmare Ink,,+27 31 404 3636,South Africa,4092,Chatsworth,33 Damorosa Cres - Moorton
Tattoos By Naid,https://tattoos-by-naid.business.site/,+27 71 296 8448,South Africa,4001,Durban,5 Morus Pl - Bonela
New Skin Tattoos,,+27 60 882 2619,South Africa,4001,Durban,city center - 303 West St - Durban Central
Just Ink Tattoo Studio,https://tatjustin69.wixsite.com/justink,+27 78 736 8510,South Africa,4061,Durban,114 Wood Rd - Montclair
Salvage Tattoo,salvagetattoo.co.za,+27 82 307 4100,South Africa,4051,Durban North,Shop 52 - 53 Adelaide Tambo Kensington Square - Adelaide Tambo Dr
Tattoos By Kimeshan,https://tattoos-by-kimeshan.business.site/?utm_source=gmb&utm_medium=referral,+27 72 454 8103,South Africa,4068,Durban,80 Grove End Dr - Phoenix
Black Market Tattoo,https://www.instagram.com/black_market.tattoo/,+27 66 093 4552,South Africa,3625,Gillitts,37 Edward Dr - Hillcrest
Spray Paint Rebel Tattoo,,+27 74 623 4636,South Africa,4309,KwaMashu,Bester - 20 Ntuzuma Access Road
Blackman Ink Tattoos Durban | Tattoo Palour | Tattoo Specialist In Durban | Profesional Tattoo Artists | Tattoo Removal | Tattoo Coverups,http://www.blackmaninktattoos.co.za/cgi-sys/suspendedpage.cgi,+27 71 779 9833,South Africa,4001,Durban,357 Anton Lembede ST - Smith Street - CBD
Liberty Tattoos,https://www.instagram.com/nixdigsink/,+27 73 695 5128,South Africa,4001,Durban,275 Florida Rd - Windermere
Tropical Ink Tattoo & Piercing,tropicalink.co.za,+27 31 561 2555,South Africa,4320,Umhlanga,11 McCausland Cres
Ink Slave,https://www.tesselations.site123.me/,+27 84 551 6742,South Africa,4000,Durban,Pioneer Place - West St - Durban Central
Kaykeo Tattoo Academy,kaykeotattooacademy.co.za,+27 84 995 2989,South Africa,3600,Pinetown,2 Allagappa Rd - Motala Heights
Alien Ink,https://m.facebook.com/login.php?next=https%3A%2F%2Fm.facebook.com%2FAlien-Ink-Tattoo-Piercing-Studio-Tattooed-Goddess-751858691574308%2F%3Ftsid%3D0.6707664149184698%26source%3Dresult&refsrc=deprecated&_rdr,+27 82 857 3503,South Africa,4006,Durban,Shop No.2 - Limnos square - 1309 Sarnia Rd - Hillary
Painful Pleasures Tattoo Lounge,,+27 74 762 7683,South Africa,3610,Pinetown,1 - 17 Caversham Rd - Pinelands
Inkspiration Tattoo Studio,,+27 73 635 6245,South Africa,4319,Umhlanga,13 Equinox Rd - Umhlanga Ridge
Durban Pro Inkers Tattoo And Piercing Studio Durban Central,,+27 71 573 7662,South Africa,4000,Durban,68 Ismail C Meer St - Durban Central
Rasta Tattoo Art Studio,,+27 83 414 3047,South Africa,3610,Kloof,Charles Way
Blackfoot Tattoos Emporium,,+27 62 052 1954,South Africa,4309,Durban,P53 Bhejane Rd - KwaMashu
Cocktail Ink Tattoos,https://cocktail-ink-tattoos.business.site/?utm_source=gmb&utm_medium=referral,+27 78 559 0557,South Africa,4001,Durban,79 Mhlongo Rd - Lamontville
Phenomenal Fine Lines,https://tattoosbylouqi.wixsite.com/mysite,+27 76 184 8433,South Africa,,13 Garlicke Dr,
Mystic Ink Tattoos,,+27 73 673 5189,South Africa,4068,Phoenix,59 Rockbury Pl - Eastbury
Throttle Brothers Tattoos,,+27 61 126 2879,South Africa,4026,Bluff,330 Quality St - Jacobs
Mondli'S Tattoos,,+27 65 941 0961,South Africa,3610,Durban,Shop 3 Union Ln - Pinetown
Tattoo'S By Raaz,,+27 67 218 7306,South Africa,4001,Durban,211 Pine St - Durban Central
Skincity Route031,,+27 81 435 5412,South Africa,4360,KwaMashu,32 Mthini Rd - Ezilwaneni
Skin Art Tattoos,,+27 71 003 0957,South Africa,4001,Durban,121 Victoria Embankment - Durban Central
Zer031 Tattoo Studio (Aka) Durban Ink Tattoo Studio,,+27 62 157 6365,South Africa,4052,Durban,60 Persadh Rd - Clairwood
Skin Stylin Tattoo'S,,+27 74 194 0192,South Africa,3290,Pietermaritzburg,Shop 5 Morling St - Howick
Insertion Of Ink Sa,https://insertinksa.com/,+27 78 213 2450,South Africa,4094,Durban,31 Teignmouth Rd - Umbilo
@Calligraphy.Inktattoosdurban,,+27 78 861 4248,South Africa,4001,Durban,303 West St - Town
Sacred Empire Tattoos & Piercings,,+27 83 303 6638,South Africa,3652,Durban,Waterfall
Reunion Tattoo Masters,,+27 78 394 0818,South Africa,4089,Durban,Umlazi Mega City - Shop S182 50 Griffith Mxenge Highway Umlazi 4066 Reunion
B&K Tattoos Tattooshop,,+27 82 259 6883,South Africa,4700,Kokstad,33 Hope St
Tattoos King Magic,https://www.facebook.com/,+27 81 309 3637,South Africa,4001,Durban,8 Bell St - HighSpray
Kevin'S Kustom Tattoos,,+27 83 259 7716,South Africa,3652,Durban,Linkhills Shopping Center Waterfall - 3652 - Inanda Rd - Waterfall
Lotus Tattoo,,+27 71 423 3397,South Africa,4001,Durban,124 Helen Joseph Rd - Glenwood
House Of Ink Pty Ltd,houseofink.co.za,+27 74 726 9833,South Africa,4052,Durban,77 Nizam Rd - Merebank East
The Dagga Joint & Tattoos,,+27 71 246 8543,South Africa,4399,Tongaat,Park Avenue Desainagar LA mercy
Venom Inked Tattoos,,+27 81 563 8434,South Africa,4399,Tongaat,30 Saxon St
Throttle Brothers Tattoos,,+27 73 278 6492,South Africa,4052,Bluff,574 Tara Rd - Wentworth
Puddy Inkers,https://puddy-inkers.business.site/?utm_source=gmb&utm_medium=referral,+27 68 022 2941,South Africa,4126,Durban,Unnamed Road - Umgababa
Ink...Ish Tattoo Studio,,+27 62 195 1035,South Africa,3200,Pietermaritzburg,20 Otto St - CBD
Blood Ink Mobile Tattoos,,+27 76 248 8636,South Africa,3201,Pietermaritzburg,197 Ares Rd - Oribi Village
Zakiyya - Henna Art Durban,hennaart.co.za,+27 83 786 0978,South Africa,4091,Durban,94 Bardia Ave - Reservoir Hills
Disturbed Ink,,+27 76 480 7432,South Africa,3608,Pinetown,8 - 95 Goodwood Rd - Mahogany Ridge
House Of Ink Pty Ltd,houseofink.co.za,+27 74 726 9833,South Africa,4052,Bluff,77 Nizam Rd - Merewent
Down 2 Earth Inkers,,+27 79 282 0260,South Africa,4001,Durban,537 Smith St - Durban Central
I Art Ink Tattoo Studio,,+27 73 695 5128,South Africa,4083,Berea,Bulwer
Maverick Ink Sa,,+27 76 412 5457,South Africa,3201,Pietermaritzburg,57 New England Rd - Scottsville
Nemesis Tattoo,,+27 79 778 8199,South Africa,4092,Chatsworth,172 Croftdene Dr - Croftdene
Dogma Ink,,+27 72 357 1826,South Africa,4093,Chatsworth,312 Florence Nightingale Dr - Westcliff
Santana Ink Tattoo And Piercings Artist Durban Contact,,+27 71 765 6813,South Africa,4091,Durban,8th floor PIONEER BUILDING Durban
Misfit Ink Tattoo Studio,,+27 66 232 3409,South Africa,4000,Durban,Shop C20 - Wilsons Wharf - 14 Boatmans Rd - Albert Park
Iqhawe Tattoos,,+27 76 305 1949,South Africa,4001,Durban,197 Brand Rd - Glenwood
Yolo Creationz Tattoos,,+27 74 247 9803,South Africa,4319,Durban,building - 5 Zenith - 20 Solstice Rd - Umhlanga Ridge
Final Dot Tattoos,https://final-dot-tattoos.business.site/?utm_source=gmb&utm_medium=referral,+27 65 967 0948,South Africa,5284,2333 Phakathwayo Place Molweni Hillcrest 3650 watercrest,
Ethereal Vision Tattoo Studio,https://www.facebook.com/EtherealVisionsTattooedGoddess,+27 82 857 3503,South Africa,3610,Hillcrest,41 Old Main Rd
One Stop Tattoo Store,,,South Africa,4126,Durban,Toti Mall - 16 Beach Rd - Amanzimtoti
New Skool Tattoo,,+27 60 352 2092,South Africa,4126,Durban,1 Strelitzia Rd - Amanzimtoti
Big Slick Tattoo Supply,,+27 84 725 7977,South Africa,3700,Hillcrest,Summerhill Ave - Summerveld
Electric Lounge Tattoo Parlour,,+27 66 542 3602,South Africa,4265,Margate,Lot 972 Marine Dr - Shelly Beach
Krsna Tattoos & Piercings,,,South Africa,4068,Durban,391 Palmview drive - Phoenix - Phoenix
Trinity Tattoos,,+27 71 296 8448,South Africa,4001,Durban,297 Florida Rd - Windermere
New Generation Tattoo,,+27 31 404 9476,South Africa,4092,Durban,26 Moorton Dr - Chatsworth
Skin Dreams Tattoos,,+27 62 064 7066,South Africa,4092,Durban,109 Colorado Circle - Bayview - Chatsworth
Tattoo Equip Sa,tattooequip.co.za,+27 84 995 2989,South Africa,3610,Durban,2 Allagappa Road Unit 2 Pinetown - Motala Heights
I Art Ink Tattoo Studio,,+27 31 584 6924,South Africa,4319,Umhlanga,18 Zenith Dr - Umhlanga Ridge
Dermagraphics Tattoo & Piercing Studio,,+27 82 826 1840,South Africa,3201,Pietermaritzburg,16 Leathern St
Proink Tattoos,,+27 66 286 3280,South Africa,4068,Phoenix,4 4th Way - Rockford
Surreal Tattoo Studio,,,South Africa,4026,Bluff,66 Assegai Cres - Jacobs
Skin Graaf Ink Tattoo And Piercings,,+27 83 376 0338,South Africa,4094,Durban,shop no 7 - 531 Sarnia Rd - Sea View
2Wice Ink Tattoos,,,South Africa,4001,Durban,Smith St - Durban Central
Blackman Ink,,,South Africa,4001,Durban,357 Smith St - Durban Central
Dit'Studio'S,,+27 84 517 8475,South Africa,4052,Durban,Pine Rd - Clairwood
Village Ink Tattoos,,+27 87 150 2470,South Africa,4320,Umhlanga,16 Chartwell Dr
Forbidden Ink,,,South Africa,3610,Durban,9 Old Main Rd - Hillcrest
Exotic Arts Tattoo Studio,,+27 76 692 4556,South Africa,4037,Durban,59 Donkin Road Parlock Newlands West
Tattooing,,+27 31 312 5975,South Africa,4001,Durban,453 Windermere Gve - Morningside
Matriarch Tattoo,https://www.instagram.com/matriarchtattoo/,+27 81 058 0367,South Africa,3610,Durban,Shop 88 - Oxford Village Center - 9 Old Main Rd - Hillcrest
Morning Star Tattoo And Piercing,,+27 60 806 0290,South Africa,4128,Hibberdene,Shop 112C - Coveway Mtwalume Beach Mtwalume Beach Mtwalume
Jolly Roger Ink Asylum,,+27 73 876 5851,South Africa,3608,Pinetown,95 Goodwood Rd - Mahogany Ridge
Nix Ink Custom Tattoo Studio,https://nix-ink-custom-tattoo-studio.business.site/?utm_source=gmb&utm_medium=referral,+27 78 260 4961,South Africa,3867,Mtunzini,Shop 17 - Kingfisher Square - 20 Hely Hutchinson Rd
Eagle Tattoos,,+27 31 765 7833,South Africa,3610,Hillcrest,Shop 24 Richdens Village Ctr - Old Main Rd - Hilldene
Jono'S Physiques Ink,,,South Africa,3610,Waterfall,70b Sutherland Rd - Pinetown NU
Toxic Ink,,+27 32 438 3880,South Africa,4400,Tongaat,9 Edmund Morewood St - Trurolands
Kingpin Ink Tattoos,,+27 84 073 9482,South Africa,4068,Phoenix,8 Rainmaker Pl - Rainham
Cebo'S Tattoo Studio/Internet Cafe,,+27 84 696 2866,South Africa,4091,Durban,Nubian Ave - Nsimbini area
Maine_Mare_Tattoos,,+27 81 332 5111,South Africa,3201,Pietermaritzburg,4 Hillview Pl - Eastwood
Hill Tribe,,,South Africa,4339,Mount Moreland,21 Bond St
Havoc Ink Tattoo And Piercing Studio,,+27 31 765 7833,South Africa,3650,Hillcrest,Shop 24 Richdens Village Centre - Old Main Road
Tattoo Artist,,,South Africa,3610,Hillcrest,Hilldene
Henna By Sumayya J - Durban,,+27 76 092 5400,South Africa,4001,Durban,Lilian Ngoyi Rd - Morningside
Mbp Artistic Art & Tattoo Studio,https://mbp-artistic-art-tattoo-studio.business.site/?utm_source=gmb&utm_medium=referral,+27 81 205 8047,South Africa,9869,Phuthaditjhaba,Makhala Street - Phuthaditjhaba-A
Ink Slave,https://ink-slave.business.site/?utm_source=gmb&utm_medium=referral,+27 84 551 6742,South Africa,4000,Durban,Room 406 floor number 4 - West Street - 330 pioneer place - Durban Central
Santana Tattoo Artist Durban Matunhire,,+27 71 765 6813,South Africa,4001,Durban,8th floor - Room 817 - 330 West St - Durban Central
Skinart Tattoo Training,https://www.skinart.co.za/,+27 72 151 8259,South Africa,3610,Durban,1 King Shaka Ave - Point
Inked By Zunai Tattoo And Piercing Studio,,+27 72 044 9458,South Africa,4051,Durban,Shop No. G8 - 250 Umhlanga Rocks Dr - Umhlanga
The Inkubus Tattoo & Piercings,,+27 64 055 5662,South Africa,4092,Durban,116 Caspian St - Westcliff
EuroSignz Tattoos,https://euro-signz-tattoos.business.site/?utm_source=gmb&utm_medium=referral,+27 83 760 4777,South Africa,1234,Durban,23 Silver Willow Rd - Springfield
Dark Ink Tattoos,https://www.facebook.com/DarkInkTattoosbyElieAchkar/,,South Africa,3610,Pinetown,2 Allagappa Rd - Motala Heights
Kaykeo Tattoo Supply,business.site,+27 84 995 2989,South Africa,3201,Pietermaritzburg,170 Peter Brown Dr - Athlone
Artura Tattoo Studio,,,South Africa,4093,Queensburgh,8 Midmar Rd - Burlington Heights
Nemesis Tattoo,,,South Africa,3610,Pinetown,29.870351251704037 - 30.804138113660606 - Chestnut Cres - Mariannhill
Nguni Tribe Tattoos,,+27 67 159 8839,South Africa,3610,New Germany,87 Ridge Rd - The Wolds
Aphrodite Art Tattoos,,,South Africa,3650,Hillcrest,9 Old Main Rd - Hilldene
Alpha Assassin Tattoo,,,South Africa,4091,Durban,57 Spearman Rd - Sydenham
Inkking Tattoos,,+27 74 315 9046,South Africa,4180,Scottburgh,7 Arbuthnot St
Shape Shift Ink,,,South Africa,4241,Port Shepstone,251 Seapark Centre - Casuarina Rd - Sea Park
Quiet Bizarre Tattoos & Piercings,quietbizarre.com,+27 76 654 0189,South Africa,4340,Durban,247 Hawk Rd - Verulam
Raw Ink Private Tattoo Sessions,https://raw-ink-private-tattoo-sessions.business.site/?utm_source=gmb&utm_medium=referral,+27 65 895 6842,South Africa,4450,KwaDukuza,Balcomb St - Stanger Central
Inkmaster Tattos,,+27 64 013 5626,South Africa,4092,Durban,107 Dowland Ave - Memorial Park
Tattoo Artist,https://andrewmichaelspsychic.site.live/,+27 74 409 0265,South Africa,4092,Durban,62 740 Rd - Chatsworth
Out The Gutter Ink,,+27 81 829 9854,South Africa,5241,East London,Shop 28b - at Berea mall (its upstairs - 16 Pearce St - Berea
Alice Tattoos,,+27 71 462 1132,South Africa,0019,Pretoria,6 Frieda St - Daspoort
Body Marked Tattoos,,+27 79 624 8123,South Africa,6055,Gqeberha,10 Frank St - Newton Park
Shockers Ink Tattoo'S,,+27 74 362 9744,South Africa,6070,Gqeberha,50 Fordyce Rd - Walmer
P.E Polynesian Tattoos,https://m.facebook.com/login.php?next=https%3A%2F%2Fm.facebook.com%2FP.E.POLYNESIAN.TATTOOS%2F&refsrc=deprecated&_rdr,+27 76 476 7704,South Africa,6600,Plettenberg Bay,"Flhat ink,Unit 3 - One - Strand St - Central"
Flhat Ink,flhatink.co.za,+27 60 518 4964,South Africa,6500,Mossel Bay,Louis Fourie Rd - De Bakke
Tattoo Lushian ( Pure Prophecy),,+27 63 089 9713,South Africa,6070,Gqeberha,152 Main Rd - Walmer
Black Ink Artists,https://www.instagram.com/black_ink_artists/,+27 41 492 3614,South Africa,6045,Gqeberha,Shop 1 Adel centre - 10 Newton St - Newton Park
Bayview'S Redliquid Tattoo And Body Piercing Studio,https://bayviews-redliquid-tattoo-and-body-piercing-studio.business.site/?utm_source=gmb&utm_medium=referral,+27 72 046 0744,South Africa,6070,Gqeberha,Unit 2 - Manor Hastings - 21 Heugh Rd - Walmer
Galway Ink Tattoo,galwayink.co.za,+27 76 825 9108,South Africa,6211,Gqeberha,44 Jwara St - Motherwell
Ink Roots Tattoo Studio,https://ink-roots-tattoo-studio.business.site/?utm_source=gmb&utm_medium=referral,+27 73 554 5565,South Africa,6017,Gqeberha,Shop LG 90 - Baywest City Food Court - 100 Baywest Blvd - Hunters Retreat
East Coast Kustoms,eastcoasttattoos.co.za,+27 41 492 0423,South Africa,6500,Mossel Bay,6 Point Rd
The Black Lab Tattoo Studio,https://www.facebook.com/TheBlackLabTattooStudio/,+27 76 913 2453,South Africa,6529,George,Market street - George walk - Market St
Divs Tattoo And Piercing,local-info.co.za,+27 84 512 7999,South Africa,6330,Jeffreys Bay,45 Da Gama Rd - Wavecrest
Southern Lights Tattoos And Piercings,business.site,+27 63 319 2280,South Africa,6065,Gqeberha,Summerstrand
Inkspired Tattoos,https://inkspired-tattoos.business.site/,+27 81 578 3921,South Africa,5247,East London,7 Baldwin Rd - Highgate
Candy Ink Tattoos,https://www.facebook.com/candyinktattoos/,+27 84 375 5368,South Africa,6001,Gqeberha,13 3rd Ave - Newton Park
Pleasure House Tattoos,https://www.facebook.com/JasonInkedYou,+27 65 936 9845,South Africa,6006,Gqeberha,66A Westbourne Road - Richmond Hill St
Nine Lives Tattoos,https://www.facebook.com/ninelivestattoos/,+27 68 538 9956,South Africa,6229,Kariega,29 Springs St - Mosel
Sailor Joe'S Tattoo Studio,https://www.facebook.com/SailorJoesTattoo/,+27 84 987 4402,South Africa,2090,Jeffreys Bay,Trinidad Dr - Marina Martinique
Third Oracle Tattoo,https://www.instagram.com/thirdoraclesacredtattoo/,+27 72 400 3110,South Africa,5256,East London,5 Franklin Cres - Gonubie
Wicked Ink Tattoos El,https://www.facebook.com/wickedinkel,+27 64 482 6578,South Africa,6628,Oudtshoorn,Cnr of Voortrekker and - High St
Real Art Tattoo Studio,https://www.facebook.com/odnRealartstudio/,+27 79 730 8950,South Africa,5256,East London,3-1 7th St - Gonubie
E.C Ink,,+27 76 826 8886,South Africa,6045,Gqeberha,21A Burt Dr - Newton Park
Tattoos By Mj,,+27 66 230 4525,South Africa,6070,Gqeberha,Shop 6c Brookes on the Bay - Summerstrand
Black Dahlia Tattoos,blackdahliatattoos.co.za,+27 78 766 7445,South Africa,5256,East London,26 12th Ave - Gonubie
White Haus Tattoo Lounge,,+27 68 548 8312,South Africa,5219,East London,8920 nu4 Mdantsane
Toxic Ink Tattoo Studios,http://toxicinktattoostudios.com/,+27 67 829 8127,South Africa,5217,East London,21A Vincent Rd - Vincent
Eastside Ink Sa,https://www.facebook.com/eastsideinksa,+27 76 811 8146,South Africa,6070,Gqeberha,1 Colleen Ave - Fairview
Inkwell Tattoo Studio,,+27 67 047 6034,South Africa,6065,Gqeberha,222 Main Rd - Walmer
Kirsty Iversen ÂTattooartist Â Port Elizabeth,,+27 41 581 1132,South Africa,6006,Gqeberha,74 Westbourne Rd - Fiveways
Styx + Bones Tattoos,,+27 41 373 1967,South Africa,6572,Sedgefield,43 Fraser St - Groenvallei
Black Dog Tattooing,https://www.facebook.com/blackdogtattooing,+27 78 484 8479,South Africa,6506,Mossel Bay,Langeberg Mall - 6506
The Tattoo Shop,https://www.facebook.com/TheTattooShopMosselBay?_rdc=1&_rdr,+27 82 562 1615,South Africa,6600,Plettenberg Bay,Hill House - 7 Strand St
The Ambling Bear,https://theamblingbear.com/,+27 72 172 1976,South Africa,6330,Jeffreys Bay,Beach front - 17a Da Gama Rd
Jbay Tattoo And Piercing,,+27 78 801 2304,South Africa,5201,East London,000000 - Belgravia
Ink Riots Tattoos,,+27 65 802 6805,South Africa,6059,Gqeberha,40th Sesde St - Windvogel
Bradzinktattoos,https://bradzinktattoos.business.site/?utm_source=gmb&utm_medium=referral,+27 68 008 1871,South Africa,6571,Knysna,Wedding House - 31 Spring St - Knysna Central
Dark Star Tattoos,,+27 74 230 8865,South Africa,6520,Mossel Bay,Swellendam Ln Pudumo 201 - Hartenbos
Pain And Patience,http://painandpatience.com/?utm_source=gmb&utm_medium=referral,,South Africa,6229,Kariega,45 Graaff Reinet Rd - Penford
Tattoo Junkie,,+27 73 643 0646,South Africa,6280,Graaff-Reinet,15 Lupin St - ASHERVILLE
Uniqma Tattoo Inks,,+27 62 137 9044,South Africa,5880,Cradock,102 Frere St
Redemption Ink,https://redemption-ink.business.site/?utm_source=gmb&utm_medium=referral,+27 64 501 0318,South Africa,6560,Wilderness,Milkwood Village - Beacon Rd
True Alchemy Tattoo,https://truealchemy.co.za/,+27 72 517 2675,South Africa,6529,George,45 A Wellington St - Bodorp
Second Skin Ta2 Studio,,+27 84 310 2491,South Africa,6571,Knysna,Bathini st - Concordia
Hummingbirdtattoo Studio,https://hummingbirdtattoo-studio.business.site/?utm_source=gmb&utm_medium=referral,+27 74 376 5349,South Africa,5201,East London,9 Harmony Rd - Amalinda
Stained.Ink Tattoo & Permanent Make-Up Studio,https://stainedink.business.site/?utm_source=gmb&utm_medium=referral,+27 62 648 3010,South Africa,5720,Fort Beaufort,Campbell Street Opposite Ford's Trading
Cjay Tattoo Studio,cjaytattoostudio.business.site,+27 78 996 1140,South Africa,7280,Bredasdorp,Van Brakel St
Body Ink Studio,,+27 72 534 7591,South Africa,6055,Gqeberha,13 3rd Ave - Newton Park
Tattoos & Body Piercings By Roestoff,,+27 65 890 4313,South Africa,6600,Plettenberg Bay,19 Main St
Purple (In Plett),https://www.purplepiercing.co.za/,+27 84 365 5171,South Africa,6330,Jeffreys Bay,68 Blombos Rd - Noorsekloof
Southern Ink Tattoo Studio,,,South Africa,6055,Gqeberha,53a Pickering Street - Newton Park
Shockers Ink Tattoos & Piercings,https://www.facebook.com/Shockers-Ink-Tattoos-port-elizabeth-1630354080526748/,+27 74 362 9744,South Africa,6571,Knysna,11 Gray St - Knysna Central
Black Lotus Tattoos And Piercings,,+27 82 771 9632,South Africa,,Northcrest,31 John Beer Dr
Mbasa,,+27 78 178 4051,South Africa,5312,East London,15 King St - Southernwood
Given Ntungo Tattoos,,,South Africa,6330,Jeffreys Bay,16 Da Gama Rd
Frost Tattoos,,+27 84 822 8787,South Africa,6520,Groot Brakrivier,Longstreet mall - Shop 2 - Lang St
Lefty'S Ink Parlour,,+27 72 714 4626,South Africa,6200,Gqeberha,56 Yokwe St - New Brighton 2
Black Hippy Tattoos,,+27 74 915 8492,South Africa,6529,George,2 Commercial Cl - Levallia
Bomkisi Tattoo,https://www.facebook.com/Bomkisitattoo/,+27 84 524 9244,South Africa,6570,Port Alfred,Shop 2 Postmasters Village - 20 Stewart Rd
High Tides Tattoo,https://m.facebook.com/login.php?next=https%3A%2F%2Fm.facebook.com%2Fhigh.tides.tattoo.parlour&refsrc=deprecated&_rdr,+27 63 425 3713,South Africa,6500,Mossel Bay,19 Marsh St
Under Armour Tattoo#Kartel Exhange,,+27 72 309 8560,South Africa,6525,Groot Brakrivier,Bergsig
Lefty'S Tattoo Parlour,,+27 72 714 4626,South Africa,6200,Gqeberha,4 Jolobe Rd - New Brighton 2
Warras Skin Art,,+27 63 640 1145,South Africa,6511,Mossel Bay,41 Koraalboom St - Heiderand
Euforia Ink Empire,,+27 84 994 3094,South Africa,6070,Gqeberha,27 Emerald St - Mount Pleasant
Blackwidow Custom Tattoos And Piercing Spa,,+27 73 582 5985,South Africa,6025,Gqeberha,13 3rd Ave - Newton Park
Salvation Ink,https://inksane-tattoo-studio.business.site/,+27 73 609 5301,South Africa,6170,Port Alfred,R72
Inked Tattoo Shop,,+27 46 624 1265,South Africa,6001,Gqeberha,56 A Newton street - Newton Park - Port Elizabeth Central
Ink Shadow Tattoos,https://www.facebook.com/Ink-Shadow-Tattoos-and-Piercings-500341613391528/,+27 78 646 4454,South Africa,6560,Wilderness,Palm Square - Owen Grant St
Moog Tattoo,https://www.instagram.com/moog_tattoo/,+27 82 514 7648,South Africa,6850,Worcester,70 Adderley St
Mysterious Tattoos,,+27 76 640 3141,South Africa,6001,Gqeberha,37 Shelly Rd - Holland Park
Adrenalin Body Piercing & Tatoo Studio,,+27 41 373 0681,South Africa,6330,Jeffreys Bay,16 Da Gama Rd
Hustler Adult Store Tattoo And Piercing,yellowpages.co.za,+27 83 371 4282,South Africa,6571,Knysna,Pledge Square - 48 Main Rd - Knysna Central
Moog Machines,,,South Africa,6001,Gqeberha,Shop 42 - The Boardwalk Casino and Entertainment World - 2nd Ave - Summerstrand
Shark Rock Tattoos & Piercing,,,South Africa,5217,East London,01 Main Road - Gonubie
Silva Tide Studio,,,South Africa,9301,Bloemfontein,Naval Rd - Waverley
Tattoo Republic,,+27 51 430 3942,South Africa,5200,East London,Rue La Pl - Gonubie
Inked. _Tattoos,,+27 76 946 7102,South Africa,5256,East London,Gonubie
Inked._Tattoos,,+27 76 946 7102,South Africa,5601,Qonce,8 Smith St
King David'S Tattoos Studio,,,South Africa,6571,Knysna,23 Nelson St - Knysna Central
LolaS Tattoo Lounge,https://www.instagram.com/lolastattoolounge/,+27 74 230 8865,South Africa,7200,Hermanus,3 Mitchell St
African Gangster Tattoo Studio,,+27 71 334 2948,South Africa,7646,Paarl,279 Main Rd - Central
Bohemian Tattoo & Piercing,https://www.facebook.com/Bohemian-AmyJinx-Tattoos-159717044053302/,+27 72 873 3400,South Africa,6001,Gqeberha,13 3rd Ave - Newton Park
Ms. Ink Tattoos By Larissa,,+27 60 579 9858,South Africa,8301,Kimberley,50B Blacking St - Beaconsfield
Whysterink Tattoo Studio,https://m.facebook.com/login.php?next=https%3A%2F%2Fm.facebook.com%2FWhysterInk-Tattoo-Studio-1947796532120376%2F%3Fref%3Dpage_internal%26mt_nav%3D0&refsrc=deprecated&ref=page_internal&_rdr,+27 84 591 1187,South Africa,6600,Plettenberg Bay,8 Hill street - Keurboomstrand
Ocean Ink Tattoos,,+27 73 613 6209,South Africa,6300,Humansdorp,60 Main St
Tattoo Creations By Clay,,+27 68 277 3675,South Africa,6505,11 Arumdrive Extension 6,
Inky-J Tattoo Spot,,+27 61 865 5476,South Africa,6740,Swellendam,8 Heemraad St
Sky Blew Tattoos,skyblew.co.za,+27 62 598 5613,South Africa,6055,Gqeberha,102 Mangold St - Newton Park
Shockers Ink Tattoo'S,,,South Africa,7624,Paarl,24 Station St - Southern Paarl
To The T - Tattoos,,+27 82 589 1163,South Africa,5100,Mthatha,44 4th Avenue 24 1st Avenuee Ncambedlana - Norwood
Platinum21 Ink Tattoos & Piercing,,+27 82 685 1917,South Africa,9300,Bloemfontein,101 St Andrew St - Bloemfontein Central
Csm Art Tattoo,https://csm-art-tattoo.business.site/,+27 76 527 1799,South Africa,6520,Mossel Bay,68 Berthold Alheit St - Bay View
123-Tattoo-Free,https://123tattoofree.com/,,South Africa,6705,Robertson,nr.17 White St
West Ink Tattoo Studio Robertson,,+27 63 820 9506,South Africa,8190,Calvinia,28 Hoop St
Calvinia Tattoo Studio,,+27 72 243 4011,South Africa,7195,Kleinmond,14 Palmiet St - Palmiet
Rebelinx Tattoo Studio,https://www.facebook.com/REBELLINX,,South Africa,8801,Upington,19 Brug St
Upington Tattoo Studio,https://upington-tattoo-studio.business.site/?utm_source=gmb&utm_medium=referral,+27 65 878 1436,South Africa,8301,Kimberley,34 Marlene Ave - Carters Glen
Nc Ink,,+27 82 788 5529,,,,
